{
    "links": {
        "self": "http://www.neowsapp.com/rest/v1/neo/3799676?api_key=iIulBulltgU6a56xZRHN4H3l9WmuAYTsLGpBGhQ2"
    },
    "id": "3799676",
    "neo_reference_id": "3799676",
    "name": "(2018 CO14)",
    "designation": "2018 CO14",
    "nasa_jpl_url": "http://ssd.jpl.nasa.gov/sbdb.cgi?sstr=3799676",
    "absolute_magnitude_h": 24.2,
    "estimated_diameter": {
        "kilometers": {
            "estimated_diameter_min": 0.0384197891,
            "estimated_diameter_max": 0.0859092601
        },
        "meters": {
            "estimated_diameter_min": 38.4197891064,
            "estimated_diameter_max": 85.9092601232
        },
        "miles": {
            "estimated_diameter_min": 0.0238729428,
            "estimated_diameter_max": 0.0533815229
        },
        "feet": {
            "estimated_diameter_min": 126.0491808919,
            "estimated_diameter_max": 281.8545369825
        }
    },
    "is_potentially_hazardous_asteroid": false,
    "close_approach_data": [
        {
            "close_approach_date": "2008-02-17",
            "close_approach_date_full": "2008-Feb-17 11:00",
            "epoch_date_close_approach": 1203246000000,
            "relative_velocity": {
                "kilometers_per_second": "12.9725328369",
                "kilometers_per_hour": "46701.1182130139",
                "miles_per_hour": "29018.2587029697"
            },
            "miss_distance": {
                "astronomical": "0.2141657882",
                "lunar": "83.3104916098",
                "kilometers": "32038745.741591134",
                "miles": "19907953.4597562892"
            },
            "orbiting_body": "Earth"
        },
        {
            "close_approach_date": "2013-02-17",
            "close_approach_date_full": "2013-Feb-17 19:46",
            "epoch_date_close_approach": 1361130360000,
            "relative_velocity": {
                "kilometers_per_second": "11.8843425224",
                "kilometers_per_hour": "42783.6330805284",
                "miles_per_hour": "26584.0857882872"
            },
            "miss_distance": {
                "astronomical": "0.153371847",
                "lunar": "59.661648483",
                "kilometers": "22944101.62916589",
                "miles": "14256803.655593682"
            },
            "orbiting_body": "Earth"
        },
        {
            "close_approach_date": "2018-02-18",
            "close_approach_date_full": "2018-Feb-18 18:55",
            "epoch_date_close_approach": 1518980100000,
            "relative_velocity": {
                "kilometers_per_second": "11.1613913252",
                "kilometers_per_hour": "40181.0087706167",
                "miles_per_hour": "24966.9162552757"
            },
            "miss_distance": {
                "astronomical": "0.1207329457",
                "lunar": "46.9651158773",
                "kilometers": "18061391.515545659",
                "miles": "11222828.2782977342"
            },
            "orbiting_body": "Earth"
        },
        {
            "close_approach_date": "2023-02-19",
            "close_approach_date_full": "2023-Feb-19 10:09",
            "epoch_date_close_approach": 1676801340000,
            "relative_velocity": {
                "kilometers_per_second": "10.7117817359",
                "kilometers_per_hour": "38562.4142494016",
                "miles_per_hour": "23961.1845651351"
            },
            "miss_distance": {
                "astronomical": "0.1246083665",
                "lunar": "48.4726545685",
                "kilometers": "18641146.212579355",
                "miles": "11583071.142350899"
            },
            "orbiting_body": "Earth"
        },
        {
            "close_approach_date": "2028-02-19",
            "close_approach_date_full": "2028-Feb-19 15:58",
            "epoch_date_close_approach": 1834588680000,
            "relative_velocity": {
                "kilometers_per_second": "10.4847481317",
                "kilometers_per_hour": "37745.0932741826",
                "miles_per_hour": "23453.3330958387"
            },
            "miss_distance": {
                "astronomical": "0.1628363518",
                "lunar": "63.3433408502",
                "kilometers": "24359971.387850666",
                "miles": "15136584.3276685508"
            },
            "orbiting_body": "Earth"
        }
    ],
    "orbital_data": {
        "orbit_id": "4",
        "orbit_determination_date": "2018-03-08 06:32:50",
        "first_observation_date": "2018-02-12",
        "last_observation_date": "2018-03-06",
        "data_arc_in_days": 22,
        "observations_used": 21,
        "orbit_uncertainty": "8",
        "minimum_orbit_intersection": ".117742",
        "jupiter_tisserand_invariant": "4.648",
        "epoch_osculation": "2458163.5",
        "eccentricity": ".2340014918925547",
        "semi_major_axis": "1.407737229853777",
        "inclination": "19.71843546171366",
        "ascending_node_longitude": "144.6016605856888",
        "orbital_period": "610.0716185487441",
        "perihelion_distance": "1.078324617875301",
        "perihelion_argument": "32.62724344565775",
        "aphelion_distance": "1.737149841832253",
        "perihelion_time": "2458194.895893939777",
        "mean_anomaly": "341.473450862693",
        "mean_motion": ".5900946529136667",
        "equinox": "J2000",
        "orbit_class": {
            "orbit_class_type": "AMO",
            "orbit_class_description": "Near-Earth asteroid orbits similar to that of 1221 Amor",
            "orbit_class_range": "1.017 AU < q (perihelion) < 1.3 AU"
        }
    },
    "is_sentry_object": false
}